#dP2022  2 18 12  0  0.00000000      96 __u+U ITR00 EXT  IAC
## 2197 475200.00000000   900.00000000 59628 0.5000000000000
+  115   C06C07C08C09C10C11C12C13C14C19C20C21C22C23C24C25C26
+        C27C28C29C30C32C33C34C35C36C37C38C39C40C41C42C43C44
+        C45C46E01E02E03E04E05E07E09E10E11E12E13E14E15E18E21
+        E24E25E26E27E30E31E33E34E36G01G02G03G04G05G06G07G08
+        G09G10G11G12G13G14G15G16G17G18G19G20G21G22G23G24G25
+        G26G27G28G29G30G31G32J01J02J03R01R02R03R04R05R07R08
+        R09R11R12R13R14R15R17R18R19R20R21R22R24  0  0  0  0
++         9 10  8  8 10  8  7  9  9  8  7  9  7  9 10  9  9
++        10 10  8  8  8  8  9  9  8  9  9  9 10  7  8 10  9
++        10  8  8  8  6  7  8  5  7  9  9  9  9  7  8  6  7
++         8  6  9  8  8  8  9  7  7  7  9  7  8  8  8  8  7
++         7  7  9  8  9  7  7  6  7  7  5  8  8  9  8  8  6
++         6  6  7  7  6  8  8 11 11  9  9  9  8  9  9  9  8
++        10  8  7  9  7  8  7  8 10 10  9 10  8  0  0  0  0
%c M  cc GPS ccc cccc cccc cccc cccc ccccc ccccc ccccc ccccc
%c cc cc ccc ccc cccc cccc cccc cccc ccccc ccccc ccccc ccccc
%f  0.0000000  0.000000000  0.00000000000  0.000000000000000
%f  0.0000000  0.000000000  0.00000000000  0.000000000000000
%i    0    0    0    0      0      0      0      0         0
%i    0    0    0    0      0      0      0      0         0
/* IAC                                ULTRA-RAPID PREDICTION
/* S/V CLOCKS ARE ALIGNED TO GNSS TIME                      
/* G:C1WC2W R:C1PC2P E:C1XC5X C:C2IC6I J:C1CC2S             
/* PCV:IGS14_2196 OL/AL:FES2004  NONE     YN ORB:CoN CLK:CoN
*  2022 02 18 14 15  0.00000000
PC06 -14965.342536  23960.944933 -31365.375973     72.364189
PC07 -13145.449093  39974.773647    632.262859    -68.826761
PC08    875.266529  29856.129450  29839.200967    143.034660
PC09  -4204.108906  24357.459290 -33881.817371   -533.905994
PC10  -7086.915554  40660.245364   7546.576334    139.768546
PC11   5964.577891  14675.202116  23044.395668   -200.538795
PC12 -14537.710713  14090.923002  19241.236777    680.980768
PC13   7088.137122  33854.712650  24432.363559   -112.993171
PC14    446.504336  23877.032993 -14369.600576    454.349203
PC19  -7770.823938 -17371.802918  20443.910209    895.567566
PC20   5666.856419 -26242.404766   7681.730359   -826.020748
PC21 -16581.068983  19815.014771  10539.412070   -943.208746
PC22 -17240.439768   1867.537088  21862.505516   -958.088266
PC23  20887.078236   8828.346536  16266.477467   -957.656982
PC24   2021.468962  22625.542551 -16246.329137   -944.027606
PC25  17466.303553  21763.836865    861.226118   -777.590905
PC26 -12100.916463  10921.564917 -22665.336888    777.390145
PC27  22341.373454 -10929.401497 -12652.987826    679.389607
PC28  27544.475189    444.131178   4458.756550     34.194044
PC29 -16863.962404 -11167.557858 -19234.489504    516.854038
PC30   4318.787469 -16188.892340 -22316.171183    493.605782
PC32  16429.015593 -19945.406359 -10528.405126   -967.080960
PC33   7827.855537  17385.385808 -20364.071392   -958.242008
PC34  -3289.924766  16208.113498  22472.474239   -466.211330
PC35 -27444.134485      0.151976  -5177.101154    145.494710
PC36 -16681.796963 -22361.385066   -379.722606   -909.072207
PC37  13169.887168  -9538.878225  22685.924541   -959.436368
PC38  -5870.333781  27017.422001  31909.269875    212.313616
PC39 -22222.013093  23080.235609 -27480.039878     34.799942
PC40 -18959.496585  37528.271775  -1550.591928    245.486754
PC41  17138.640249  -1476.557511 -21919.626508   -939.630746
PC42  -6359.386538  26314.997962  -6691.512737   -931.903674
PC43  16186.343522  11644.222666  19506.051588   -940.961171
PC44 -22137.187169  11660.014591  12390.058376    568.927644
PC45 -20783.897711  -8603.702181 -16502.744508    683.833646
PC46  -3295.704390 -23056.034361  15336.191551   -175.259538
PE01  16792.811055   7486.835974  23196.438041   -581.495613
PE02 -16807.372259  -7265.926383 -23257.535602    281.072321
PE03 -23629.760037   2348.304249  17663.963385   -529.059081
PE04  23981.983590 -17314.639399  -1081.376972   -967.371520
PE05  -9381.854366 -14279.863323  24173.070197   -207.875370
PE07 -10133.071503  22366.448596 -16521.106197   -640.278988
PE09   9904.518339 -22310.679051  16753.345091   5355.945602
PE10  11266.625378 -12440.625993 -24382.135007   -496.090061
PE11    -62.957281 -17054.068867 -24198.585821   4423.323719
PE12  20310.003412  -6159.430700 -20618.253545   4753.198991
PE13   -645.568512  16764.862760  24394.430520    426.639704
PE14 -24589.843377   6958.794629  -5536.395843  -1750.164693
PE15 -20408.488401   6048.899981  20584.399956    762.548133
PE18  23580.783202 -18578.747516  -8186.968959  -1777.819896
PE21  11209.989544  24720.279731  11816.206164   -717.901871
PE24   2127.759952 -28366.924398   8107.791374  -1397.456188
PE25 -11085.289645 -24862.622251 -11607.969167   -564.054962
PE26  20084.235687  17467.929579  12955.532023   -820.072985
PE27  -1157.561567  28752.935809  -6977.479176   -235.166945
PE30 -13323.804795  14720.343711 -21973.992981   -284.232911
PE31  12752.033792 -15819.096120  21522.649350   -492.371146
PE33  28052.383737   8200.334793  -4637.420064   -459.316358
PE34 -28079.782533  -8004.655460   4855.052377   -502.483702
PE36 -19398.082851 -17566.686774 -13834.855200   -334.083969
PG01 -22487.132364 -14465.535889  -1155.000943    428.391002
PG02   6876.943660  17946.690048  18940.437108   -651.081813
PG03 -12744.819048 -13615.094399  18851.533494   -127.067205
PG04 -18455.374489  -4911.605329  18497.416812   -188.812709
PG05   5852.638271  24852.454920  -7188.321257    -71.869285
PG06  -9661.480746  11275.027658  22096.942378    205.463480
PG07 -23080.111412  -3066.518899 -12840.510703    311.152033
PG08  -9207.478817 -12104.107955 -21815.033517    -56.673936
PG09 -23764.554946   5422.029247  10517.512527   -353.632129
PG10  11655.720789 -16474.316264 -16970.383041   -323.915595
PG11   4922.403643  18605.698329  18308.982174    -84.971745
PG12  10431.197663  17185.631518  17159.503236   -172.890030
PG13    -69.402105  15878.598006 -21418.788873    263.741007
PG14 -12957.515815  15527.197579 -17187.060243    -85.324131
PG15  11445.478773  11437.248052 -21489.381850    -82.884087
PG16   -300.027539 -26017.260544  -4142.145871   -471.015961
PG17 -22165.377452  14129.079085   4419.110827    576.724192
PG18  22596.658494   2831.801438 -13753.760126    237.518183
PG19 -17942.556783  15866.282203  11016.860324    120.563731
PG20   1426.763356  26443.792526   3373.479406    516.644802
PG21 -18471.254598 -16525.944763  -9694.923306    158.234476
PG22  14516.861763 -17479.965521  13998.411184    215.439892
PG23  14775.343499  -4687.862013 -21568.088061      0.195578
PG24  21386.693934  15165.417084  -5751.292814    273.848692
PG25  15006.768638   3756.207258  21332.476976    287.272318
PG26   5505.697897 -24184.535122   8978.143870    184.271921
PG27   2734.631473 -17256.720784 -20078.706881    124.270414
PG28  -9409.719269  22470.438954 -10328.585337    397.806440
PG29  23308.148697  -1689.990269  12631.414586   -481.730204
PG30 -18121.592323   5096.947998 -18755.974452   -514.125811
PG31   7971.053585 -13037.296955  21595.067965   -165.298689
PG32  18985.935871 -16948.266771   7380.626730    -69.930718
PJ01 -34930.733651  23269.368598   8877.584052    240.889223
PJ02 -20501.110599  26604.521781 -20930.178795     -1.434682
PJ03 -29847.343835  24579.291103  21844.719861     -0.588461
PR01  16676.530303 -15064.293474 -12076.278157      7.090540
PR02  10657.030605 -21821.366143   7743.768007    510.060967
PR03  -1831.762907 -14778.015732  20739.165958     51.698365
PR04 -12836.103277    465.991502  22068.926847    128.246565
PR05 -16997.848959  15389.553625  11215.244910     87.948810
PR07   2232.848597  14340.172348 -20950.627315     31.766505
PR08  12945.033311   -548.831748 -21909.818062    -63.626071
PR09   1890.624492  20361.638038 -15189.076969     40.148766
PR11  14988.545566  12415.726197  16488.666715     45.358335
PR12   9322.913505  -5978.561641  22996.235418     17.232261
PR13  -1276.812638 -19722.278128  16101.333543    -18.433632
PR14 -11799.309865 -22588.539032  -1219.245923     74.504620
PR15 -14855.422308 -11915.869049 -16955.177768     98.101076
PR17 -12809.432274  -9956.169040 -19660.078089    502.707443
PR18 -24322.702113  -4826.552418  -6089.335011    107.682275
PR19 -23531.652296   1692.260938   9705.868962   -178.647299
PR20  -7327.508893   9258.044776  22629.579089    -65.153151
PR21  14167.046156   9699.803001  18876.824498   -279.021565
PR22  24486.004833   4586.965508   5219.240956   -165.497279
PR24   6371.081004 -10017.531900 -22557.237066     80.779331
EOF
